{
  "norad_id": 61213,
  "name": "STARLINK-32386",
  "history": [
    {
      "epoch": "2026-03-28T18:19:14.023200Z",
      "apogee_km": 475.9318349551295,
      "perigee_km": 474.5318287701557,
      "latitude_deg": 4.318280216276709e-05,
      "longitude_deg": 132.51106755436888,
      "height_km": 475.88805551727074,
      "semi_major_axis_km": 6853.368831862642,
      "eccentricity": 0.00010214,
      "inclination_deg": 53.1597,
      "raan_deg": 233.4986,
      "arg_perigee_deg": 69.7541,
      "mean_anomaly_deg": 290.357,
      "mean_motion_rev_day": 15.30194386
    },
    {
      "epoch": "2026-03-29T02:09:29.832768Z",
      "apogee_km": 475.9679897788037,
      "perigee_km": 474.4862924514937,
      "latitude_deg": 1.7779984449166012e-05,
      "longitude_deg": 13.106991457808592,
      "height_km": 475.90225368978207,
      "semi_major_axis_km": 6853.364141115148,
      "eccentricity": 0.0001081,
      "inclination_deg": 53.1607,
      "raan_deg": 231.9823,
      "arg_perigee_deg": 72.4526,
      "mean_anomaly_deg": 287.6593,
      "mean_motion_rev_day": 15.30195957
    },
    {
      "epoch": "2026-03-29T02:09:29.833632Z",
      "apogee_km": 475.96778417787937,
      "perigee_km": 474.486498052418,
      "latitude_deg": 2.0418247472693562e-05,
      "longitude_deg": 13.106989813517442,
      "height_km": 475.90231567642587,
      "semi_major_axis_km": 6853.364141115148,
      "eccentricity": 0.00010807,
      "inclination_deg": 53.1607,
      "raan_deg": 231.9823,
      "arg_perigee_deg": 72.4526,
      "mean_anomaly_deg": 287.6593,
      "mean_motion_rev_day": 15.30195957
    },
    {
      "epoch": "2026-03-30T12:38:40.262496Z",
      "apogee_km": 476.038451954385,
      "perigee_km": 474.47697450292344,
      "latitude_deg": -3.0004056296991974e-06,
      "longitude_deg": -152.27757931268326,
      "height_km": 476.0511223801836,
      "semi_major_axis_km": 6853.394713228654,
      "eccentricity": 0.00011392,
      "inclination_deg": 53.1591,
      "raan_deg": 225.3075,
      "arg_perigee_deg": 82.2889,
      "mean_anomaly_deg": 277.8241,
      "mean_motion_rev_day": 15.30185718
    }
  ]
}